TEMPEST-D               
1 43547U 98067NV  20128.79337450  .00004817  00000-0  59952-4 0  9998
2 43547  51.6352 157.0796 0004322 269.0880  90.9619 15.62035991103162
RAINCUBE                
1 43548U 98067NW  20128.74031571  .00024396  00000-0  18375-3 0  9996
2 43548  51.6316 138.5793 0003707 324.0489  36.0259 15.72369543103858
HALOSAT                 
1 43549U 98067NX  20128.46957883  .00016888  00000-0  13194-3 0  9990
2 43549  51.6341 140.5887 0003344 327.8412  32.2382 15.71779711103360
ENDUROSAT ONE           
1 43551U 98067NZ  20128.05761039  .00044290  00000-0  25705-3 0  9993
2 43551  51.6325 133.2390 0004074 343.9499  16.1372 15.78056656103833
EQUISAT                 
1 43552U 98067PA  20128.45267377  .00027440  00000-0  20540-3 0  9994
2 43552  51.6339 139.0145 0004392 327.1978  32.8747 15.72440608103750
AEROCUBE 12A            
1 43556U 18046C   20128.73765748  .00001730  00000-0  71598-4 0  9997
2 43556  51.6425 301.1791 0008629 146.9417 213.2104 15.29701626101146
AEROCUBE 12B            
1 43557U 18046D   20128.79108521  .00000653  00000-0  35014-4 0  9990
2 43557  51.6426 301.5254 0008679 146.5224 213.6307 15.29430735101096
UITMSAT-1               
1 43589U 98067PD  20128.73234485  .00033014  00000-0  22364-3 0  9999
2 43589  51.6303 136.2074 0004473 345.7997  14.2876 15.74674893 99554
MAYA-1                  
1 43590U 98067PE  20128.72520268  .00033245  00000-0  22509-3 0  9994
2 43590  51.6290 136.1690 0004629 344.1877  15.8977 15.74682414 99486
BHUTAN-1                
1 43591U 98067PF  20128.38399050  .00034377  00000-0  23165-3 0  9996
2 43591  51.6316 137.7003 0004599 344.7222  15.3638 15.74774941 99438
SIRIUSSAT-1             
1 43595U 98067PG  20128.75689187  .00028086  00000-0  20864-3 0  9997
2 43595  51.6309 140.1579 0002067 341.0865  19.0056 15.72614056 98613
SIRIUSSAT-2             
1 43596U 98067PH  20128.75238926  .00028291  00000-0  21102-3 0  9993
2 43596  51.6317 140.9486 0002115 330.9278  29.1603 15.72513166 98606
TANUSHA-3               
1 43597U 98067PJ  20128.83878676  .00060339  00000-0  30598-3 0  9993
2 43597  51.6283 130.0615 0003509  16.6903 343.4214 15.80908406 98754
SURFSAT                 
1 43614U 18070B   20128.76900189  .00002796  00000-0  72308-4 0  9995
2 43614  93.0198 137.7771 0017594 128.0293 232.2553 15.39006943 92221
CP7 (DAVE)              
1 43615U 18070C   20128.66666247  .00002606  00000-0  67687-4 0  9993
2 43615  93.0200 137.7275 0017750 128.0400 232.2459 15.38870428 92208
ELFIN-B                 
1 43616U 18070D   20128.80665168  .00003649  00000-0  90858-4 0  9995
2 43616  93.0161 137.7157 0018232 129.3437 230.9437 15.40129969 92261
ELFIN-A                 
1 43617U 18070E   20128.77963386  .00003841  00000-0  95119-4 0  9994
2 43617  93.0213 138.1827 0017688 126.3588 233.9302 15.40301415 92269
CUBEBEL-1 (BSUSAT-1)    
1 43666U 18083E   20128.90697083  .00000848  00000-0  44708-4 0  9997
2 43666  97.4919 155.7668 0016114 136.6451 345.2511 15.18186101 84468
DEBRISSAT-2             
1 43680U 98067PR  20128.70284629  .00294992  46914-4  61437-3 0  9999
2 43680  51.6271 120.8302 0005316  46.2301 313.9148 15.98536927107598
CICERO 10               
1 43690U 18088A   20128.68170851  .00000934  00000-0  41138-4 0  9993
2 43690  85.0355 105.1860 0017308  98.3452 261.9752 15.20177063 82544
IRVINE01                
1 43693U 18088D   20128.68434104  .00002765  00000-0  11629-3 0  9995
2 43693  85.0328 103.9964 0020489  82.3768 277.9800 15.22707208 82649
PROXIMA I               
1 43694U 18088E   20128.65465999  .00001039  00000-0  43583-4 0  9997
2 43694  85.0300 103.8377 0021620  75.3358 285.0278 15.21907545 82635
PROXIMA II              
1 43696U 18088G   20128.65294402  .00001037  00000-0  43474-4 0  9995
2 43696  85.0301 103.8420 0021668  75.2676 285.0965 15.21910083 82635
FACSAT-1                
1 43721U 18096C   20128.91465145  .00001273  00000-0  50521-4 0  9999
2 43721  97.4221 202.7066 0015937 265.3694  94.5724 15.27122880 80204
CENTAURI-2              
1 43722U 18096D   20128.69198213  .00001787  00000-0  68766-4 0  9994
2 43722  97.4231 202.7224 0015913 265.9609  93.9811 15.27618589 80170
INNOSAT-2               
1 43738U 18096V   20128.91719613  .00002590  00000-0  90879-4 0  9992
2 43738  97.4247 204.7490 0021728 273.1423  86.7331 15.30146817 80336
SIRION PATHFINDER-2     
1 43759U 18099B   20128.89141433  .00000400  00000-0  41509-4 0  9998
2 43759  97.7072 201.2386 0013204 324.1174  35.9158 14.95263533 77877
CORVUS-BC 4             
1 43767U 18099K   20128.88452841  .00000535  00000-0  54494-4 0  9990
2 43767  97.7053 200.6867 0010823 329.4856  30.5733 14.94708394 77846
MOVE-II                 
1 43780U 18099Y   20128.84072671  .00000102  00000-0  14454-4 0  9992
2 43780  97.7078 201.1086 0012751 336.5598  23.5040 14.95365056 77849
SPACEBEE-7              
1 43816U 18099BL  20128.72117565  .00000072  00000-0  11700-4 0  9998
2 43816  97.7088 201.3576 0012311 319.7982  40.2328 14.95661304 77400
SPACEBEE-5              
1 43817U 18099BM  20128.62381296  .00001438  00000-0  13247-3 0  9996
2 43817  97.7142 201.6443 0011615 321.1248  38.9137 14.96234989 77404
SPACEBEE-6              
1 43818U 18099BN  20128.68967981  .00000959  00000-0  90917-4 0  9991
2 43818  97.7106 201.4460 0011991 320.5934  39.4414 14.95843797 77556
SHIELDS 1               
1 43850U 18104B   20128.61960730  .00000041  00000-0  00000-0 0  9994
2 43850  85.0322 202.3392 0013476 212.4228 147.6190 15.21353396 77263
STF-1                   
1 43852U 18104D   20128.62934013  .00000041  00000-0  00000-0 0  9992
2 43852  85.0354 202.8441 0012398 229.8484 130.1689 15.21209854 77245
ZACUBE-2                
1 43907U 18111AH  20128.89026189  .00000488  00000-0  22602-4 0  9997
2 43907  97.2691  29.8684 0019868 288.7574  71.1508 15.24552332 75836
LUME 1                  
1 43908U 18111AJ  20128.82592149  .00000965  00000-0  41367-4 0  9994
2 43908  97.2691  29.9501 0019614 288.7463  71.1646 15.24970403 75838
AOBA VELOX-IV           
1 43940U 19003J   20122.67935571  .00002295  00000-0  94415-4 0  9998
2 43940  97.2321 175.5541 0024757  33.1416  83.9199 15.24860275 71521
CATSAT-2                
1 44029U 98067PV  20128.82087937  .00011902  00000-0  12849-3 0  9996
2 44029  51.6367 161.8177 0003981 310.9310  49.1340 15.64113584 72163
DELPHINI                
1 44030U 98067PW  20128.79864470  .00016261  00000-0  16785-3 0  9995
2 44030  51.6330 160.8248 0003872 313.6216  46.4458 15.64941447 72142
UNITE                   
1 44031U 98067PX  20127.82361230  .00008283  00000-0  10410-3 0  9999
2 44031  51.6363 171.6217 0002753 297.1181  62.9532 15.60642678 71919
TECHEDSAT 8             
1 44032U 98067PY  20111.15468586  .13178104  12516-4  85387-3 0  9999
2 44032  51.6107 221.1148 0008059 315.3167  44.7209 16.40789031 69743
CATSAT-1                
1 44033U 98067PZ  20128.82075689  .00012654  00000-0  13627-3 0  9992
2 44033  51.6368 161.8226 0003751 309.7651  50.3013 15.64109644 72076
RAAVANA-1               
1 44329U 98067QE  20128.83590184  .00008586  00000-0  12227-3 0  9997
2 44329  51.6375 177.6787 0005051 212.2548 147.8135 15.57220597 50679
UGUISU                  
1 44330U 98067QF  20128.84639866  .00008421  00000-0  12037-3 0  9998
2 44330  51.6378 177.7448 0005039 210.5856 149.4843 15.57149921 50651
NEPALISAT-1             
1 44331U 98067QG  20128.12312430  .00008989  00000-0  12761-3 0  9998
2 44331  51.6382 181.1672 0005132 211.3017 148.7670 15.57237205 50559
SPOOQY-1                
1 44332U 98067QH  20128.83016943  .00008159  00000-0  11677-3 0  9991
2 44332  51.6380 177.6365 0004079 217.0122 143.0589 15.57167655 50622
SPACEBEE-9              
1 44370U 19037F   20128.88663460  .00007412  00000-0  17226-3 0  9997
2 44370  45.0156 342.4801 0013829 303.0730  56.8832 15.42924714 48331
SPACEBEE-8              
1 44371U 19037G   20128.93354841  .00014558  00000-0  29165-3 0  9998
2 44371  45.0169 337.7760 0011413 302.0437  57.9345 15.46627462 48387
IOD-1 GEMS              
1 44385U 98067QK  20128.68098764  .00014090  00000-0  18302-3 0  9996
2 44385  51.6391 177.4346 0001474 150.4596 209.6480 15.59094421 48123
MOVE-IIB                
1 44398U 19038N   20128.79351492  .00000967  00000-0  59428-4 0  9996
2 44398  97.5331  90.5540 0023484 267.9485  91.9056 15.12248120 46436
SONATE                  
1 44400U 19038Q   20128.88483039  .00000380  00000-0  25917-4 0  9998
2 44400  97.5364  90.6620 0023601 265.7095  94.1438 15.11921740 46445
LUCKY-7                 
1 44406U 19038W   20128.77517130  .00000614  00000-0  39233-4 0  9998
2 44406  97.5360  90.6439 0022971 265.8123  94.0482 15.12178654 46422
BEESAT 9                
1 44412U 19038AC  20128.64340295  .00000833  00000-0  51798-4 0  9990
2 44412  97.5352  90.4951 0021037 272.6318  87.2504 15.12243023 46108
JAISAT-1                
1 44419U 19038F   20128.87516302  .00000724  00000-0  44948-4 0  9994
2 44419  97.5354  90.9574 0019928 271.0104  88.8844 15.12726420 46465
SWIATOWID               
1 44426U 98067QL  20128.73369394  .00016160  00000-0  20355-3 0  9999
2 44426  51.6416 176.8152 0001914 141.9794 315.1346 15.59785673 48152
KRAKSAT                 
1 44427U 98067QM  20128.86391455  .00006085  00000-0  94450-4 0  9990
2 44427  51.6395 180.1484 0002972 153.8561 206.2580 15.55466471 48163
VCC A                   
1 44428U 98067QN  20128.68406381  .00008827  00000-0  12832-3 0  9995
2 44428  51.6393 179.7010 0001821 176.4041 183.6964 15.56618343 48158
ENTRYSAT                
1 44429U 98067QP  20128.87005727  .00010267  00000-0  14356-3 0  9990
2 44429  51.6380 177.9233 0001485 161.0175 199.0873 15.57467835 48199
VCC C                   
1 44430U 98067QQ  20128.42267767  .00013591  00000-0  18094-3 0  9993
2 44430  51.6376 179.4462 0001080 182.5988 177.4999 15.58471354 46951
